start=new Date('2023-04-25T00:00:00.000Z').valueOf();
sats=[{"MEAN_ANOMALY":"244.4418","TLE_LINE1":"1 46371U 20062AY  23114.15604975  .00109695  00000-0  72565-2 0  9996","ECCENTRICITY":"0.00009830","COUNTRY_CODE":"US","ELEMENT_SET_NO":"999","SEMIMAJOR_AXIS":"6925.144","LAUNCH_DATE":"2020-09-03","CLASSIFICATION_TYPE":"U","FILE":"3892900","DECAY_DATE":null,"BSTAR":"0.00725650000000","OBJECT_TYPE":"PAYLOAD","NORAD_CAT_ID":"46371","EPHEMERIS_TYPE":"0","GP_ID":"230665766","MEAN_MOTION_DDOT":"0.0000000000000","APOAPSIS":"547.690","REF_FRAME":"TEME","TLE_LINE2":"2 46371  53.0549  32.6448 0000983 115.6672 244.4418 15.06466740146438","OBJECT_ID":"2020-062AY","REV_AT_EPOCH":"14643","MEAN_MOTION":"15.06466740","OBJECT_NAME":"STARLINK-1688","INCLINATION":"53.0549","MEAN_MOTION_DOT":"0.00109695","EPOCH":"2023-04-24T03:44:42.698400","PERIOD":"95.588","RCS_SIZE":"LARGE","MEAN_ELEMENT_THEORY":"SGP4","PERIAPSIS":"546.328","ARG_OF_PERICENTER":"115.6672","SITE":"AFETR","RA_OF_ASC_NODE":"32.6448","CENTER_NAME":"EARTH","TIME_SYSTEM":"UTC"},{"TLE_LINE2":"2 46372  53.0558  52.3049 0001073 112.7364 247.3738 15.06447060145982","OBJECT_ID":"2020-062AZ","REV_AT_EPOCH":"14598","APOAPSIS":"547.812","REF_FRAME":"TEME","MEAN_MOTION_DDOT":"0.0000000000000","GP_ID":"230695411","OBJECT_TYPE":"PAYLOAD","NORAD_CAT_ID":"46372","BSTAR":"0.00467970000000","EPHEMERIS_TYPE":"0","FILE":"3893330","DECAY_DATE":null,"LAUNCH_DATE":"2020-09-03","CLASSIFICATION_TYPE":"U","SEMIMAJOR_AXIS":"6925.204","ELEMENT_SET_NO":"999","COUNTRY_CODE":"US","TLE_LINE1":"1 46372U 20062AZ  23114.23161025  .00070209  00000-0  46797-2 0  9996","ECCENTRICITY":"0.00010730","MEAN_ANOMALY":"247.3738","TIME_SYSTEM":"UTC","CENTER_NAME":"EARTH","RA_OF_ASC_NODE":"52.3049","SITE":"AFETR","PERIAPSIS":"546.326","ARG_OF_PERICENTER":"112.7364","MEAN_ELEMENT_THEORY":"SGP4","RCS_SIZE":"LARGE","PERIOD":"95.589","EPOCH":"2023-04-24T05:33:31.125600","MEAN_MOTION_DOT":"0.00070209","MEAN_MOTION":"15.06447060","OBJECT_NAME":"STARLINK-1689","INCLINATION":"53.0558"},{"ARG_OF_PERICENTER":"137.1153","PERIAPSIS":"546.318","MEAN_ELEMENT_THEORY":"SGP4","TIME_SYSTEM":"UTC","CENTER_NAME":"EARTH","RA_OF_ASC_NODE":"340.7603","SITE":"AFETR","EPOCH":"2023-04-24T13:51:04.927968","MEAN_MOTION_DOT":"0.00085765","MEAN_MOTION":"15.06506586","OBJECT_NAME":"STARLINK-1711","INCLINATION":"53.0554","RCS_SIZE":"LARGE","PERIOD":"95.585","GP_ID":"230695660","OBJECT_TYPE":"PAYLOAD","BSTAR":"0.00569070000000","NORAD_CAT_ID":"46374","EPHEMERIS_TYPE":"0","FILE":"3893330","DECAY_DATE":null,"TLE_LINE2":"2 46374  53.0554 340.7603 0000822 137.1153 222.9900 15.06506586147013","REV_AT_EPOCH":"14701","OBJECT_ID":"2020-062BB","APOAPSIS":"547.456","REF_FRAME":"TEME","MEAN_MOTION_DDOT":"0.0000000000000","COUNTRY_CODE":"US","TLE_LINE1":"1 46374U 20062BB  23114.57714037  .00085765  00000-0  56907-2 0  9999","ECCENTRICITY":"0.00008220","MEAN_ANOMALY":"222.9900","LAUNCH_DATE":"2020-09-03","CLASSIFICATION_TYPE":"U","SEMIMAJOR_AXIS":"6925.022","ELEMENT_SET_NO":"999"},{"DECAY_DATE":null,"FILE":"3893413","GP_ID":"230704543","OBJECT_TYPE":"PAYLOAD","BSTAR":"0.00672790000000","NORAD_CAT_ID":"46375","EPHEMERIS_TYPE":"0","MEAN_MOTION_DDOT":"0.0000000000000","OBJECT_ID":"2020-062BC","REV_AT_EPOCH":"14686","TLE_LINE2":"2 46375  53.0560   5.0977 0000780 113.9791 246.1280 15.06515786146862","REF_FRAME":"TEME","APOAPSIS":"547.399","MEAN_ANOMALY":"246.1280","COUNTRY_CODE":"US","ECCENTRICITY":"0.00007800","TLE_LINE1":"1 46375U 20062BC  23114.72410100  .00101703  00000-0  67279-2 0  9996","SEMIMAJOR_AXIS":"6924.994","ELEMENT_SET_NO":"999","CLASSIFICATION_TYPE":"U","LAUNCH_DATE":"2020-09-03","ARG_OF_PERICENTER":"113.9791","PERIAPSIS":"546.319","MEAN_ELEMENT_THEORY":"SGP4","RA_OF_ASC_NODE":"5.0977","SITE":"AFETR","TIME_SYSTEM":"UTC","CENTER_NAME":"EARTH","INCLINATION":"53.0560","OBJECT_NAME":"STARLINK-1724","MEAN_MOTION":"15.06515786","EPOCH":"2023-04-24T17:22:42.326400","MEAN_MOTION_DOT":"0.00101703","PERIOD":"95.585","RCS_SIZE":"LARGE"},{"MEAN_MOTION_DDOT":"0.0000000000000","OBJECT_ID":"2020-062BD","REV_AT_EPOCH":"14677","TLE_LINE2":"2 46376  53.0550   7.7113 0001092 107.4425 252.6683 15.06523757146778","APOAPSIS":"547.590","REF_FRAME":"TEME","FILE":"3892893","DECAY_DATE":null,"GP_ID":"230665367","BSTAR":"0.00776730000000","OBJECT_TYPE":"PAYLOAD","NORAD_CAT_ID":"46376","EPHEMERIS_TYPE":"0","SEMIMAJOR_AXIS":"6924.969","ELEMENT_SET_NO":"999","LAUNCH_DATE":"2020-09-03","CLASSIFICATION_TYPE":"U","MEAN_ANOMALY":"252.6683","COUNTRY_CODE":"US","ECCENTRICITY":"0.00010920","TLE_LINE1":"1 46376U 20062BD  23114.14177127  .00117753  00000-0  77673-2 0  9993","RA_OF_ASC_NODE":"7.7113","SITE":"AFETR","TIME_SYSTEM":"UTC","CENTER_NAME":"EARTH","PERIAPSIS":"546.078","MEAN_ELEMENT_THEORY":"SGP4","ARG_OF_PERICENTER":"107.4425","PERIOD":"95.584","RCS_SIZE":"LARGE","OBJECT_NAME":"STARLINK-1742","INCLINATION":"53.0550","MEAN_MOTION":"15.06523757","EPOCH":"2023-04-24T03:24:09.037728","MEAN_MOTION_DOT":"0.00117753"},{"MEAN_MOTION":"15.06474060","INCLINATION":"53.0551","OBJECT_NAME":"STARLINK-1758","EPOCH":"2023-04-24T04:11:14.961408","MEAN_MOTION_DOT":"0.00109765","PERIOD":"95.587","RCS_SIZE":"LARGE","ARG_OF_PERICENTER":"88.7731","PERIAPSIS":"546.435","MEAN_ELEMENT_THEORY":"SGP4","RA_OF_ASC_NODE":"32.5621","SITE":"AFETR","TIME_SYSTEM":"UTC","CENTER_NAME":"EARTH","MEAN_ANOMALY":"271.3349","COUNTRY_CODE":"US","TLE_LINE1":"1 46380U 20062BH  23114.17447872  .00109765  00000-0  72596-2 0  9991","ECCENTRICITY":"0.00007960","SEMIMAJOR_AXIS":"6925.122","ELEMENT_SET_NO":"999","LAUNCH_DATE":"2020-09-03","CLASSIFICATION_TYPE":"U","FILE":"3893330","DECAY_DATE":null,"GP_ID":"230694912","OBJECT_TYPE":"PAYLOAD","NORAD_CAT_ID":"46380","BSTAR":"0.00725960000000","EPHEMERIS_TYPE":"0","MEAN_MOTION_DDOT":"0.0000000000000","TLE_LINE2":"2 46380  53.0551  32.5621 0000796  88.7731 271.3349 15.06474060146257","OBJECT_ID":"2020-062BH","REV_AT_EPOCH":"14625","APOAPSIS":"547.538","REF_FRAME":"TEME"},{"MEAN_MOTION":"15.06485549","OBJECT_NAME":"STARLINK-1769","INCLINATION":"53.0546","EPOCH":"2023-04-24T16:29:42.234432","MEAN_MOTION_DOT":"0.00095847","PERIOD":"95.587","RCS_SIZE":"LARGE","ARG_OF_PERICENTER":"101.6916","PERIAPSIS":"546.246","MEAN_ELEMENT_THEORY":"SGP4","RA_OF_ASC_NODE":"5.2623","SITE":"AFETR","TIME_SYSTEM":"UTC","CENTER_NAME":"EARTH","MEAN_ANOMALY":"258.4187","COUNTRY_CODE":"US","TLE_LINE1":"1 46382U 20062BK  23114.68729438  .00095847  00000-0  63520-2 0  9992","ECCENTRICITY":"0.00010190","SEMIMAJOR_AXIS":"6925.086","ELEMENT_SET_NO":"999","CLASSIFICATION_TYPE":"U","LAUNCH_DATE":"2020-09-03","FILE":"3893415","DECAY_DATE":null,"GP_ID":"230704123","BSTAR":"0.00635200000000","OBJECT_TYPE":"PAYLOAD","NORAD_CAT_ID":"46382","EPHEMERIS_TYPE":"0","MEAN_MOTION_DDOT":"0.0000000000000","TLE_LINE2":"2 46382  53.0546   5.2623 0001019 101.6916 258.4187 15.06485549146835","REV_AT_EPOCH":"14683","OBJECT_ID":"2020-062BK","APOAPSIS":"547.657","REF_FRAME":"TEME"},{"MEAN_MOTION_DDOT":"0.0000000000000","REV_AT_EPOCH":"14597","OBJECT_ID":"2020-062BL","TLE_LINE2":"2 46383  53.0535  52.4029 0000781 117.2313 242.8756 15.06459923145977","REF_FRAME":"TEME","APOAPSIS":"547.571","DECAY_DATE":null,"FILE":"3893330","GP_ID":"230695910","EPHEMERIS_TYPE":"0","OBJECT_TYPE":"PAYLOAD","BSTAR":"0.00575110000000","NORAD_CAT_ID":"46383","SEMIMAJOR_AXIS":"6925.165","ELEMENT_SET_NO":"999","LAUNCH_DATE":"2020-09-03","CLASSIFICATION_TYPE":"U","MEAN_ANOMALY":"242.8756","COUNTRY_CODE":"US","ECCENTRICITY":"0.00007810","TLE_LINE1":"1 46383U 20062BL  23114.20949320  .00086579  00000-0  57511-2 0  9990","RA_OF_ASC_NODE":"52.4029","SITE":"AFETR","TIME_SYSTEM":"UTC","CENTER_NAME":"EARTH","PERIAPSIS":"546.489","MEAN_ELEMENT_THEORY":"SGP4","ARG_OF_PERICENTER":"117.2313","PERIOD":"95.588","RCS_SIZE":"LARGE","INCLINATION":"53.0535","OBJECT_NAME":"STARLINK-1770","MEAN_MOTION":"15.06459923","EPOCH":"2023-04-24T05:01:40.212480","MEAN_MOTION_DOT":"0.00086579"},{"EPOCH":"2023-04-24T01:55:53.431392","MEAN_MOTION_DOT":"0.00027191","MEAN_MOTION":"15.06427682","OBJECT_NAME":"STARLINK-1771","INCLINATION":"53.0550","RCS_SIZE":"LARGE","PERIOD":"95.590","PERIAPSIS":"546.426","ARG_OF_PERICENTER":"136.1947","MEAN_ELEMENT_THEORY":"SGP4","TIME_SYSTEM":"UTC","CENTER_NAME":"EARTH","RA_OF_ASC_NODE":"52.9865","SITE":"AFETR","COUNTRY_CODE":"US","TLE_LINE1":"1 46384U 20062BM  23114.08047953  .00027191  00000-0  18359-2 0  9990","ECCENTRICITY":"0.00010150","MEAN_ANOMALY":"223.9123","LAUNCH_DATE":"2020-09-03","CLASSIFICATION_TYPE":"U","SEMIMAJOR_AXIS":"6925.264","ELEMENT_SET_NO":"999","GP_ID":"230696662","BSTAR":"0.00183590000000","OBJECT_TYPE":"PAYLOAD","EPHEMERIS_TYPE":"0","NORAD_CAT_ID":"46384","DECAY_DATE":null,"FILE":"3893330","TLE_LINE2":"2 46384  53.0550  52.9865 0001015 136.1947 223.9123 15.06427682145955","OBJECT_ID":"2020-062BM","REV_AT_EPOCH":"14595","APOAPSIS":"547.832","REF_FRAME":"TEME","MEAN_MOTION_DDOT":"0.0000000000000"},{"APOAPSIS":"547.601","REF_FRAME":"TEME","TLE_LINE2":"2 46532  53.0536 210.5987 0000842  34.9300 325.1744 15.06463942141258","OBJECT_ID":"2020-070A","REV_AT_EPOCH":"14125","MEAN_MOTION_DDOT":"0.0000000000000","OBJECT_TYPE":"PAYLOAD","NORAD_CAT_ID":"46532","BSTAR":"0.00668830000000","EPHEMERIS_TYPE":"0","GP_ID":"230706369","FILE":"3893503","DECAY_DATE":null,"LAUNCH_DATE":"2020-10-06","CLASSIFICATION_TYPE":"U","ELEMENT_SET_NO":"999","SEMIMAJOR_AXIS":"6925.153","TLE_LINE1":"1 46532U 20070A   23114.61124453  .00100951  00000-0  66883-2 0  9995","ECCENTRICITY":"0.00008420","COUNTRY_CODE":"US","MEAN_ANOMALY":"325.1744","CENTER_NAME":"EARTH","TIME_SYSTEM":"UTC","SITE":"AFETR","RA_OF_ASC_NODE":"210.5987","MEAN_ELEMENT_THEORY":"SGP4","PERIAPSIS":"546.434","ARG_OF_PERICENTER":"34.9300","RCS_SIZE":"LARGE","PERIOD":"95.588","MEAN_MOTION_DOT":"0.00100951","EPOCH":"2023-04-24T14:40:11.527392","MEAN_MOTION":"15.06463942","INCLINATION":"53.0536","OBJECT_NAME":"STARLINK-1644"}];
